[{"OBJECT_NAME":"STARLINK-1039","OBJECT_ID":"2019-074AH","EPOCH":"2026-03-09T14:46:14.325312","MEAN_MOTION":15.21697508,"ECCENTRICITY":0.000318,"INCLINATION":53.0506,"RA_OF_ASC_NODE":215.4382,"ARG_OF_PERICENTER":172.5659,"MEAN_ANOMALY":187.5385,"EPHEMERIS_TYPE":0,"CLASSIFICATION_TYPE":"U","NORAD_CAT_ID":44744,"ELEMENT_SET_NO":999,"REV_AT_EPOCH":34834,"BSTAR":0.0027625,"MEAN_MOTION_DOT":0.00063546,"MEAN_MOTION_DDOT":0},{"OBJECT_NAME":"YAOGAN-43 03B","OBJECT_ID":"2024-190B","EPOCH":"2026-03-09T13:02:57.184224","MEAN_MOTION":15.23292973,"ECCENTRICITY":0.00065493,"INCLINATION":34.9874,"RA_OF_ASC_NODE":104.3622,"ARG_OF_PERICENTER":178.8126,"MEAN_ANOMALY":181.2605,"EPHEMERIS_TYPE":0,"CLASSIFICATION_TYPE":"U","NORAD_CAT_ID":61618,"ELEMENT_SET_NO":999,"REV_AT_EPOCH":7666,"BSTAR":0.00046413742,"MEAN_MOTION_DOT":0.00011265,"MEAN_MOTION_DDOT":0}]
