STARLINK-1039           
1 44744U 19074AH  26068.61544358  .00063546  00000+0  27625-2 0  9999
2 44744  53.0506 215.4382 0003180 172.5659 187.5385 15.21697508348349
YAOGAN-43 03B           
1 61618U 24190B   26068.54371741  .00011265  00000+0  46414-3 0  9998
2 61618  34.9874 104.3622 0006549 178.8126 181.2605 15.23292973 76665
